NORAD_CAT_ID,OBJECT_NAME,OBJECT_TYPE,EPOCH,MEAN_MOTION,ECCENTRICITY,INCLINATION,RA_OF_ASC_NODE,ARG_OF_PERICENTER,MEAN_ANOMALY,BSTAR,MEAN_MOTION_DOT,MEAN_MOTION_DDOT,TLE_LINE0,TLE_LINE1,TLE_LINE2,SEMIMAJOR_AXIS,PERIOD,APOGEE,PERIGEE,DECAYED
53928.0,STARLINK-5009,PAYLOAD,2023-08-15 04:11:00,15.08855758,0.0001316,53.2162,192.6855,91.7817,268.3326,-0.00020452,-3.543e-05,0.0,0 STARLINK-5009,1 53928U 22119AU  23227.17431116 -.00003543  00000-0 -20452-3 0  9995,2 53928  53.2162 192.6855 0001316  91.7817 268.3326 15.08855758 50016,6917.832,95.437,540.608,538.787,0.0
53928.0,STARLINK-5009,PAYLOAD,2023-08-16 02:26:24,15.08832895,0.0001383,53.2163,188.5238,90.8793,269.2357,0.00017403,2.482e-05,0.0,0 STARLINK-5009,1 53928U 22119AU  23228.10167680  .00002482  00000-0  17403-3 0  9992,2 53928  53.2163 188.5238 0001383  90.8793 269.2357 15.08832895 50159,6917.902,95.438,540.724,538.81,0.0
53928.0,STARLINK-5009,PAYLOAD,2023-08-16 07:12:33,15.08840196,0.0001431,53.2171,187.6305,97.0947,263.0208,0.00018581,2.67e-05,0.0,0 STARLINK-5009,1 53928U 22119AU  23228.30039292  .00002670  00000-0  18581-3 0  9998,2 53928  53.2171 187.6305 0001431  97.0947 263.0208 15.08840196 50180,6917.88,95.438,540.735,538.755,0.0
53928.0,STARLINK-5009,PAYLOAD,2023-08-17 02:17:12,15.088359,0.0001543,53.2177,184.0655,91.7521,268.3648,5.5266e-05,5.92e-06,0.0,0 STARLINK-5009,1 53928U 22119AU  23229.09528222  .00000592  00000-0  55266-4 0  9994,2 53928  53.2177 184.0655 0001543  91.7521 268.3648 15.08835900 50305,6917.893,95.438,540.825,538.69,0.0
53928.0,STARLINK-5009,PAYLOAD,2023-08-18 03:43:22,15.08843288,0.0001289,53.2165,179.3063,94.5508,265.5631,8.0675e-05,9.96e-06,0.0,0 STARLINK-5009,1 53928U 22119AU  23230.15511861  .00000996  00000-0  80675-4 0  9994,2 53928  53.2165 179.3063 0001289  94.5508 265.5631 15.08843288 50461,6917.87,95.437,540.627,538.844,0.0
53928.0,STARLINK-5009,PAYLOAD,2023-08-19 01:58:46,15.08834653,0.0001412,53.2185,175.1461,102.6448,257.4703,4.7864e-05,4.74e-06,0.0,0 STARLINK-5009,1 53928U 22119AU  23231.08248720  .00000474  00000-0  47864-4 0  9992,2 53928  53.2185 175.1461 0001412 102.6448 257.4703 15.08834653 50603,6917.897,95.438,540.739,538.785,0.0
53928.0,STARLINK-5009,PAYLOAD,2023-08-20 03:24:57,15.08840522,0.0001444,53.2183,170.3877,98.4724,261.6432,3.8195e-05,3.2e-06,0.0,0 STARLINK-5009,1 53928U 22119AU  23232.14232803  .00000320  00000-0  38195-4 0  9992,2 53928  53.2183 170.3877 0001444  98.4724 261.6432 15.08840522 50768,6917.879,95.438,540.743,538.745,0.0
53928.0,STARLINK-5009,PAYLOAD,2023-08-21 04:51:06,15.08846889,0.0001569,53.2189,165.6239,92.789,267.3282,0.00015955,2.253e-05,0.0,0 STARLINK-5009,1 53928U 22119AU  23233.20216282  .00002253  00000-0  15955-3 0  9998,2 53928  53.2189 165.6239 0001569  92.7890 267.3282 15.08846889 50928,6917.859,95.437,540.81,538.639,0.0
53928.0,STARLINK-5009,PAYLOAD,2023-08-22 01:31:08,15.08841108,0.0001494,53.2174,161.7594,91.297,268.8193,5.4046e-05,5.72e-06,0.0,0 STARLINK-5009,1 53928U 22119AU  23234.06328971  .00000572  00000-0  54046-4 0  9999,2 53928  53.2174 161.7594 0001494  91.2970 268.8193 15.08841108 51054,6917.877,95.437,540.776,538.708,0.0
53928.0,STARLINK-5009,PAYLOAD,2023-08-24 04:23:28,15.08847836,0.0001385,53.2173,152.2445,101.088,259.0268,-5.0651e-05,-1.094e-05,0.0,0 STARLINK-5009,1 53928U 22119AU  23236.18296879 -.00001094  00000-0 -50651-4 0  9995,2 53928  53.2173 152.2445 0001385 101.0880 259.0268 15.08847836 51792,6917.856,95.437,540.68,538.763,0.0
53928.0,STARLINK-5009,PAYLOAD,2023-08-25 01:03:29,15.08836894,0.0001332,53.218,148.3803,95.628,264.4864,5.8117e-05,6.37e-06,0.0,0 STARLINK-5009,1 53928U 22119AU  23237.04409418  .00000637  00000-0  58117-4 0  9991,2 53928  53.2180 148.3803 0001332  95.6280 264.4864 15.08836894 51501,6917.89,95.438,540.676,538.833,0.0
53928.0,STARLINK-5009,PAYLOAD,2023-08-25 18:32:44,15.08839422,0.000125,53.2177,145.1093,98.4278,261.6856,4.7079e-05,4.61e-06,0.0,0 STARLINK-5009,1 53928U 22119AU  23237.77273416  .00000461  00000-0  47079-4 0  9998,2 53928  53.2177 145.1093 0001250  98.4278 261.6856 15.08839422 52039,6917.882,95.438,540.612,538.882,0.0
53928.0,STARLINK-5009,PAYLOAD,2023-08-26 02:29:39,15.08839393,0.0001254,53.2176,143.6231,92.026,268.0876,6.6785e-05,7.75e-06,0.0,0 STARLINK-5009,1 53928U 22119AU  23238.10393392  .00000775  00000-0  66785-4 0  9995,2 53928  53.2176 143.6231 0001254  92.0260 268.0876 15.08839393 51668,6917.882,95.438,540.615,538.88,0.0
53928.0,STARLINK-5009,PAYLOAD,2023-08-26 21:34:18,15.08819897,0.0001435,53.2178,140.056,101.4383,258.677,0.00027138,4.031e-05,0.0,0 STARLINK-5009,1 53928U 22119AU  23238.89881988  .00004031  00000-0  27138-3 0  9991,2 53928  53.2178 140.0560 0001435 101.4383 258.6770 15.08819897 52204,6917.942,95.439,540.8,538.814,0.0
53928.0,STARLINK-5009,PAYLOAD,2023-08-27 02:20:26,15.08840568,0.0001294,53.2171,139.161,84.4519,275.6621,7.2435e-05,8.65e-06,0.0,0 STARLINK-5009,1 53928U 22119AU  23239.09753442  .00000865  00000-0  72435-4 0  9999,2 53928  53.2171 139.1610 0001294  84.4519 275.6621 15.08840568 52232,6917.879,95.438,540.639,538.848,0.0
53928.0,STARLINK-5009,PAYLOAD,2023-08-27 21:25:04,15.08838568,0.0001337,53.2168,135.5926,88.4811,271.6334,5.2344e-05,5.45e-06,0.0,0 STARLINK-5009,1 53928U 22119AU  23239.89241682  .00000545  00000-0  52344-4 0  9997,2 53928  53.2168 135.5926 0001337  88.4811 271.6334 15.08838568 52352,6917.885,95.438,540.675,538.825,0.0
53928.0,STARLINK-5009,PAYLOAD,2023-08-28 02:11:13,15.08851761,0.0001453,53.2176,134.7013,68.9952,291.1195,2.569e-05,1.21e-06,0.0,0 STARLINK-5009,1 53928U 22119AU  23240.09112948  .00000121  00000-0  25690-4 0  9997,2 53928  53.2176 134.7013 0001453  68.9952 291.1195 15.08851761 51965,6917.844,95.437,540.715,538.704,0.0
53928.0,STARLINK-5009,PAYLOAD,2023-08-28 10:08:10,15.08837483,0.0001391,53.2174,133.2144,84.9767,275.1384,3.2301e-05,2.26e-06,0.0,0 STARLINK-5009,1 53928U 22119AU  23240.42233851  .00000226  00000-0  32301-4 0  9994,2 53928  53.2174 133.2144 0001391  84.9767 275.1384 15.08837483 52019,6917.888,95.438,540.715,538.791,0.0
53928.0,STARLINK-5009,PAYLOAD,2023-08-28 21:15:52,15.08838008,0.0001426,53.2177,131.1329,86.3091,273.8065,-5.5659e-06,-3.77e-06,0.0,0 STARLINK-5009,1 53928U 22119AU  23240.88602030 -.00000377  00000-0 -55659-5 0  9994,2 53928  53.2177 131.1329 0001426  86.3091 273.8065 15.08838008 52508,6917.886,95.438,540.738,538.765,0.0
53928.0,STARLINK-5009,PAYLOAD,2023-08-29 19:31:16,15.08838442,0.0001218,53.2167,126.9705,91.1615,268.9517,-4.1111e-05,-9.42e-06,0.0,0 STARLINK-5009,1 53928U 22119AU  23241.81338272 -.00000942  00000-0 -41111-4 0  9997,2 53928  53.2167 126.9705 0001218  91.1615 268.9517 15.08838442 52646,6917.885,95.438,540.593,538.908,0.0
53928.0,STARLINK-5009,PAYLOAD,2023-08-30 01:52:48,15.08844111,0.0001268,53.2167,125.7799,92.4942,267.6195,6.74e-06,-1.81e-06,0.0,0 STARLINK-5009,1 53928U 22119AU  23242.07833758 -.00000181  00000-0  67400-5 0  9999,2 53928  53.2167 125.7799 0001268  92.4942 267.6195 15.08844111 52264,6917.868,95.437,540.61,538.856,0.0
53928.0,STARLINK-5009,PAYLOAD,2023-08-30 09:49:43,15.08844609,0.0001272,53.2169,124.2937,95.7692,264.3445,-6.0805e-06,-3.85e-06,0.0,0 STARLINK-5009,1 53928U 22119AU  23242.40953674 -.00000385  00000-0 -60805-5 0  9995,2 53928  53.2169 124.2937 0001272  95.7692 264.3445 15.08844609 52733,6917.866,95.437,540.611,538.851,0.0
53928.0,STARLINK-5009,PAYLOAD,2023-08-31 00:08:11,15.08848123,0.0001375,53.2172,121.6171,88.7957,271.3192,8.0111e-05,9.88e-06,0.0,0 STARLINK-5009,1 53928U 22119AU  23243.00569296  .00000988  00000-0  80111-4 0  9993,2 53928  53.2172 121.6171 0001375  88.7957 271.3192 15.08848123 52820,6917.856,95.437,540.672,538.769,0.0
53928.0,STARLINK-5009,PAYLOAD,2023-08-31 23:59:00,15.08843778,8.96e-05,53.2172,117.164,94.8224,265.287,-0.00065583,-0.00010711,0.0,0 STARLINK-5009,1 53928U 22119AU  23243.99931397 -.00010711  00000-0 -65583-3 0  9998,2 53928  53.2172 117.1640 0000896  94.8224 265.2870 15.08843778 52559,6917.869,95.437,540.354,539.114,0.0
53928.0,STARLINK-5009,PAYLOAD,2023-09-01 15:52:50,15.08839891,0.0001443,53.2181,114.1857,46.2456,313.8655,1.661e-05,-2.4e-07,0.0,0 STARLINK-5009,1 53928U 22119AU  23244.66169927 -.00000024  00000-0  16610-4 0  9998,2 53928  53.2181 114.1857 0001443  46.2456 313.8655 15.08839891 52656,6917.881,95.438,540.744,538.747,0.0
53928.0,STARLINK-5009,PAYLOAD,2023-09-02 01:25:09,15.08860692,0.0001444,53.2178,112.4,94.3043,265.8114,-0.00018744,-3.272e-05,0.0,0 STARLINK-5009,1 53928U 22119AU  23245.05913377 -.00003272  00000-0 -18744-3 0  9996,2 53928  53.2178 112.4000 0001444  94.3043 265.8114 15.08860692 52716,6917.817,95.436,540.681,538.683,0.0
53928.0,STARLINK-5009,PAYLOAD,2023-09-02 07:46:42,15.08836501,0.0001751,53.2183,111.2087,88.311,271.8082,-4.7802e-05,-1.049e-05,0.0,0 STARLINK-5009,1 53928U 22119AU  23245.32410458 -.00001049  00000-0 -47802-4 0  9996,2 53928  53.2183 111.2087 0001751  88.3110 271.8082 15.08836501 52750,6917.891,95.438,540.967,538.545,0.0
53928.0,STARLINK-5009,PAYLOAD,2023-09-02 22:05:10,15.08840795,0.0001407,53.2177,108.5356,98.2531,261.8621,9.7499e-05,1.264e-05,0.0,0 STARLINK-5009,1 53928U 22119AU  23245.92025957  .00001264  00000-0  97499-4 0  9992,2 53928  53.2177 108.5356 0001407  98.2531 261.8621 15.08840795 53261,6917.878,95.438,540.716,538.77,0.0
53928.0,STARLINK-5009,PAYLOAD,2023-09-03 01:15:56,15.08843949,0.0001412,53.2179,107.9398,95.1557,264.9596,0.00012245,1.662e-05,0.0,0 STARLINK-5009,1 53928U 22119AU  23246.05273715  .00001662  00000-0  12245-3 0  9991,2 53928  53.2179 107.9398 0001412  95.1557 264.9596 15.08843949 52866,6917.868,95.437,540.71,538.757,0.0
53928.0,STARLINK-5009,PAYLOAD,2023-09-03 07:37:29,15.08838232,0.0001297,53.2178,106.7488,97.8239,262.2901,8.3649e-05,1.044e-05,0.0,0 STARLINK-5009,1 53928U 22119AU  23246.31770192  .00001044  00000-0  83649-4 0  9992,2 53928  53.2178 106.7488 0001297  97.8239 262.2901 15.08838232 52904,6917.886,95.438,540.648,538.854,0.0
